STARLINK-2704           
1 48643U 21044F   26068.39422650 -.00000403  00000+0 -14789-5 0  9991
2 48643  53.1594 115.2316 0001359  88.4412 271.6745 15.30192842263781
YAOGAN-36 04C           
1 54750U 22171E   26068.78871400  .00016196  00000+0  54592-3 0  9991
2 54750  34.9797  96.6578 0006685 275.3761  84.6192 15.29852307180246
